IRIDIUM 106             
1 41917U 17003A   26062.74502571  .00000098  00000+0  28041-4 0  9995
2 41917  86.3992 132.6448 0001938 104.7117 255.4294 14.34218127478093
IRIDIUM 103             
1 41918U 17003B   26062.59280322  .00000144  00000+0  44301-4 0  9995
2 41918  86.3990 132.6085 0002176  86.6399 273.5045 14.34218639478097
IRIDIUM 109             
1 41919U 17003C   26062.66891519  .00000046  00000+0  95288-5 0  9992
2 41919  86.3992 132.6345 0002164  95.2850 264.8593 14.34217820478074
IRIDIUM 102             
1 41920U 17003D   26062.70697005  .00000192  00000+0  61401-4 0  9994
2 41920  86.3990 132.5445 0002262  96.9703 263.1750 14.34218625478169
IRIDIUM 105             
1 41921U 17003E   26062.60373418  .00000340  00000+0  11376-3 0  9993
2 41921  86.3927 101.0411 0002259  92.9709 267.1745 14.34398288480000
IRIDIUM 104             
1 41922U 17003F   26062.71965627  .00000136  00000+0  41477-4 0  9994
2 41922  86.3989 132.5800 0002387  88.9069 271.2400 14.34218415478156
IRIDIUM 114             
1 41923U 17003G   26062.72599818  .00000115  00000+0  34089-4 0  9999
2 41923  86.3990 132.5609 0002250  89.9060 270.2394 14.34218311478131
IRIDIUM 108             
1 41924U 17003H   26062.61475075  .00000267  00000+0  88348-4 0  9991
2 41924  86.3919 100.9251 0002321  97.3008 262.8452 14.34218508479972
IRIDIUM 112             
1 41925U 17003J   26062.71331347  .00000114  00000+0  33711-4 0  9991
2 41925  86.3985 132.4133 0002350  94.4515 265.6949 14.34218117478155
IRIDIUM 111             
1 41926U 17003K   26062.70062829  .00000085  00000+0  23290-4 0  9995
2 41926  86.3989 132.4868 0002142  95.0754 265.0687 14.34217814478130
IRIDIUM 113             
1 42803U 17039A   26062.40151809  .00000074  00000+0  19391-4 0  9998
2 42803  86.4019   6.3751 0002277  82.5993 277.5461 14.34218147456027
IRIDIUM 123             
1 42804U 17039B   26062.44299625  .00000059  00000+0  14050-4 0  9992
2 42804  86.3964  37.8152 0002017  82.8547 277.2878 14.34217556454794
IRIDIUM 120             
1 42805U 17039C   26062.74401706  .00000273  00000+0  90453-4 0  9990
2 42805  86.4016   6.0289 0002106  90.4446 269.6991 14.34218575456060
IRIDIUM 115             
1 42806U 17039D   26062.31970705  .00000508  00000+0  14510-3 0  9994
2 42806  86.4547   6.3198 0001863  84.6087 275.5326 14.43283487458993
IRIDIUM 118             
1 42807U 17039E   26062.47470825  .00000132  00000+0  40081-4 0  9996
2 42807  86.3960  37.8005 0002236  85.5507 274.5944 14.34217738454795
IRIDIUM 117             
1 42808U 17039F   26062.42396817  .00000028  00000+0  30748-5 0  9994
2 42808  86.3961  37.7804 0002040  83.5635 276.5793 14.34217822454817
IRIDIUM 126             
1 42809U 17039G   26062.44933911  .00000003  00000+0 -61635-5 0  9992
2 42809  86.3959  37.8195 0002078  82.3073 277.8359 14.34217609454795
