[{"OBJECT_NAME":"IRIDIUM 106","OBJECT_ID":"2017-003A","EPOCH":"2026-03-03T17:52:50.221344","MEAN_MOTION":14.34218127,"ECCENTRICITY":0.0001938,"INCLINATION":86.3992,"RA_OF_ASC_NODE":132.6448,"ARG_OF_PERICENTER":104.7117,"MEAN_ANOMALY":255.4294,"EPHEMERIS_TYPE":0,"CLASSIFICATION_TYPE":"U","NORAD_CAT_ID":41917,"ELEMENT_SET_NO":999,"REV_AT_EPOCH":47809,"BSTAR":2.8041e-5,"MEAN_MOTION_DOT":9.8e-7,"MEAN_MOTION_DDOT":0},{"OBJECT_NAME":"IRIDIUM 103","OBJECT_ID":"2017-003B","EPOCH":"2026-03-03T14:13:38.198208","MEAN_MOTION":14.34218639,"ECCENTRICITY":0.0002176,"INCLINATION":86.399,"RA_OF_ASC_NODE":132.6085,"ARG_OF_PERICENTER":86.6399,"MEAN_ANOMALY":273.5045,"EPHEMERIS_TYPE":0,"CLASSIFICATION_TYPE":"U","NORAD_CAT_ID":41918,"ELEMENT_SET_NO":999,"REV_AT_EPOCH":47809,"BSTAR":4.4301e-5,"MEAN_MOTION_DOT":1.44e-6,"MEAN_MOTION_DDOT":0},{"OBJECT_NAME":"IRIDIUM 109","OBJECT_ID":"2017-003C","EPOCH":"2026-03-03T16:03:14.272416","MEAN_MOTION":14.3421782,"ECCENTRICITY":0.0002164,"INCLINATION":86.3992,"RA_OF_ASC_NODE":132.6345,"ARG_OF_PERICENTER":95.285,"MEAN_ANOMALY":264.8593,"EPHEMERIS_TYPE":0,"CLASSIFICATION_TYPE":"U","NORAD_CAT_ID":41919,"ELEMENT_SET_NO":999,"REV_AT_EPOCH":47807,"BSTAR":9.5288e-6,"MEAN_MOTION_DOT":4.6e-7,"MEAN_MOTION_DDOT":0},{"OBJECT_NAME":"IRIDIUM 102","OBJECT_ID":"2017-003D","EPOCH":"2026-03-03T16:58:02.212320","MEAN_MOTION":14.34218625,"ECCENTRICITY":0.0002262,"INCLINATION":86.399,"RA_OF_ASC_NODE":132.5445,"ARG_OF_PERICENTER":96.9703,"MEAN_ANOMALY":263.175,"EPHEMERIS_TYPE":0,"CLASSIFICATION_TYPE":"U","NORAD_CAT_ID":41920,"ELEMENT_SET_NO":999,"REV_AT_EPOCH":47816,"BSTAR":6.1401e-5,"MEAN_MOTION_DOT":1.92e-6,"MEAN_MOTION_DDOT":0},{"OBJECT_NAME":"IRIDIUM 105","OBJECT_ID":"2017-003E","EPOCH":"2026-03-03T14:29:22.633152","MEAN_MOTION":14.34398288,"ECCENTRICITY":0.0002259,"INCLINATION":86.3927,"RA_OF_ASC_NODE":101.0411,"ARG_OF_PERICENTER":92.9709,"MEAN_ANOMALY":267.1745,"EPHEMERIS_TYPE":0,"CLASSIFICATION_TYPE":"U","NORAD_CAT_ID":41921,"ELEMENT_SET_NO":999,"REV_AT_EPOCH":48000,"BSTAR":0.00011376,"MEAN_MOTION_DOT":3.4e-6,"MEAN_MOTION_DDOT":0},{"OBJECT_NAME":"IRIDIUM 104","OBJECT_ID":"2017-003F","EPOCH":"2026-03-03T17:16:18.301728","MEAN_MOTION":14.34218415,"ECCENTRICITY":0.0002387,"INCLINATION":86.3989,"RA_OF_ASC_NODE":132.58,"ARG_OF_PERICENTER":88.9069,"MEAN_ANOMALY":271.24,"EPHEMERIS_TYPE":0,"CLASSIFICATION_TYPE":"U","NORAD_CAT_ID":41922,"ELEMENT_SET_NO":999,"REV_AT_EPOCH":47815,"BSTAR":4.1477e-5,"MEAN_MOTION_DOT":1.36e-6,"MEAN_MOTION_DDOT":0},{"OBJECT_NAME":"IRIDIUM 114","OBJECT_ID":"2017-003G","EPOCH":"2026-03-03T17:25:26.242752","MEAN_MOTION":14.34218311,"ECCENTRICITY":0.000225,"INCLINATION":86.399,"RA_OF_ASC_NODE":132.5609,"ARG_OF_PERICENTER":89.906,"MEAN_ANOMALY":270.2394,"EPHEMERIS_TYPE":0,"CLASSIFICATION_TYPE":"U","NORAD_CAT_ID":41923,"ELEMENT_SET_NO":999,"REV_AT_EPOCH":47813,"BSTAR":3.4089e-5,"MEAN_MOTION_DOT":1.15e-6,"MEAN_MOTION_DDOT":0},{"OBJECT_NAME":"IRIDIUM 108","OBJECT_ID":"2017-003H","EPOCH":"2026-03-03T14:45:14.464800","MEAN_MOTION":14.34218508,"ECCENTRICITY":0.0002321,"INCLINATION":86.3919,"RA_OF_ASC_NODE":100.9251,"ARG_OF_PERICENTER":97.3008,"MEAN_ANOMALY":262.8452,"EPHEMERIS_TYPE":0,"CLASSIFICATION_TYPE":"U","NORAD_CAT_ID":41924,"ELEMENT_SET_NO":999,"REV_AT_EPOCH":47997,"BSTAR":8.8348e-5,"MEAN_MOTION_DOT":2.67e-6,"MEAN_MOTION_DDOT":0},{"OBJECT_NAME":"IRIDIUM 112","OBJECT_ID":"2017-003J","EPOCH":"2026-03-03T17:07:10.283808","MEAN_MOTION":14.34218117,"ECCENTRICITY":0.000235,"INCLINATION":86.3985,"RA_OF_ASC_NODE":132.4133,"ARG_OF_PERICENTER":94.4515,"MEAN_ANOMALY":265.6949,"EPHEMERIS_TYPE":0,"CLASSIFICATION_TYPE":"U","NORAD_CAT_ID":41925,"ELEMENT_SET_NO":999,"REV_AT_EPOCH":47815,"BSTAR":3.3711e-5,"MEAN_MOTION_DOT":1.14e-6,"MEAN_MOTION_DDOT":0},{"OBJECT_NAME":"IRIDIUM 111","OBJECT_ID":"2017-003K","EPOCH":"2026-03-03T16:48:54.284256","MEAN_MOTION":14.34217814,"ECCENTRICITY":0.0002142,"INCLINATION":86.3989,"RA_OF_ASC_NODE":132.4868,"ARG_OF_PERICENTER":95.0754,"MEAN_ANOMALY":265.0687,"EPHEMERIS_TYPE":0,"CLASSIFICATION_TYPE":"U","NORAD_CAT_ID":41926,"ELEMENT_SET_NO":999,"REV_AT_EPOCH":47813,"BSTAR":2.329e-5,"MEAN_MOTION_DOT":8.5e-7,"MEAN_MOTION_DDOT":0},{"OBJECT_NAME":"IRIDIUM 113","OBJECT_ID":"2017-039A","EPOCH":"2026-03-03T09:38:11.162976","MEAN_MOTION":14.34218147,"ECCENTRICITY":0.00022777,"INCLINATION":86.4019,"RA_OF_ASC_NODE":6.3751,"ARG_OF_PERICENTER":82.5993,"MEAN_ANOMALY":277.5461,"EPHEMERIS_TYPE":0,"CLASSIFICATION_TYPE":"U","NORAD_CAT_ID":42803,"ELEMENT_SET_NO":999,"REV_AT_EPOCH":45602,"BSTAR":1.9390921e-5,"MEAN_MOTION_DOT":7.4e-7,"MEAN_MOTION_DDOT":0},{"OBJECT_NAME":"IRIDIUM 123","OBJECT_ID":"2017-039B","EPOCH":"2026-03-03T10:37:54.876000","MEAN_MOTION":14.34217556,"ECCENTRICITY":0.00020171,"INCLINATION":86.3964,"RA_OF_ASC_NODE":37.8152,"ARG_OF_PERICENTER":82.8547,"MEAN_ANOMALY":277.2878,"EPHEMERIS_TYPE":0,"CLASSIFICATION_TYPE":"U","NORAD_CAT_ID":42804,"ELEMENT_SET_NO":999,"REV_AT_EPOCH":45479,"BSTAR":1.4050427e-5,"MEAN_MOTION_DOT":5.9e-7,"MEAN_MOTION_DDOT":0},{"OBJECT_NAME":"IRIDIUM 120","OBJECT_ID":"2017-039C","EPOCH":"2026-03-03T17:51:23.073984","MEAN_MOTION":14.34218575,"ECCENTRICITY":0.0002106,"INCLINATION":86.4016,"RA_OF_ASC_NODE":6.0289,"ARG_OF_PERICENTER":90.4446,"MEAN_ANOMALY":269.6991,"EPHEMERIS_TYPE":0,"CLASSIFICATION_TYPE":"U","NORAD_CAT_ID":42805,"ELEMENT_SET_NO":999,"REV_AT_EPOCH":45606,"BSTAR":9.0453e-5,"MEAN_MOTION_DOT":2.73e-6,"MEAN_MOTION_DDOT":0},{"OBJECT_NAME":"IRIDIUM 115","OBJECT_ID":"2017-039D","EPOCH":"2026-03-03T07:40:22.689120","MEAN_MOTION":14.43283487,"ECCENTRICITY":0.0001863,"INCLINATION":86.4547,"RA_OF_ASC_NODE":6.3198,"ARG_OF_PERICENTER":84.6087,"MEAN_ANOMALY":275.5326,"EPHEMERIS_TYPE":0,"CLASSIFICATION_TYPE":"U","NORAD_CAT_ID":42806,"ELEMENT_SET_NO":999,"REV_AT_EPOCH":45899,"BSTAR":0.00014510449,"MEAN_MOTION_DOT":5.08e-6,"MEAN_MOTION_DDOT":0},{"OBJECT_NAME":"IRIDIUM 118","OBJECT_ID":"2017-039E","EPOCH":"2026-03-03T11:23:34.792800","MEAN_MOTION":14.34217738,"ECCENTRICITY":0.0002236,"INCLINATION":86.396,"RA_OF_ASC_NODE":37.8005,"ARG_OF_PERICENTER":85.5507,"MEAN_ANOMALY":274.5944,"EPHEMERIS_TYPE":0,"CLASSIFICATION_TYPE":"U","NORAD_CAT_ID":42807,"ELEMENT_SET_NO":999,"REV_AT_EPOCH":45479,"BSTAR":4.0080851e-5,"MEAN_MOTION_DOT":1.32e-6,"MEAN_MOTION_DDOT":0},{"OBJECT_NAME":"IRIDIUM 117","OBJECT_ID":"2017-039F","EPOCH":"2026-03-03T10:10:30.849888","MEAN_MOTION":14.34217822,"ECCENTRICITY":0.00020402,"INCLINATION":86.3961,"RA_OF_ASC_NODE":37.7804,"ARG_OF_PERICENTER":83.5635,"MEAN_ANOMALY":276.5793,"EPHEMERIS_TYPE":0,"CLASSIFICATION_TYPE":"U","NORAD_CAT_ID":42808,"ELEMENT_SET_NO":999,"REV_AT_EPOCH":45481,"BSTAR":3.074776e-6,"MEAN_MOTION_DOT":2.8e-7,"MEAN_MOTION_DDOT":0},{"OBJECT_NAME":"IRIDIUM 126","OBJECT_ID":"2017-039G","EPOCH":"2026-03-03T10:47:02.899104","MEAN_MOTION":14.34217609,"ECCENTRICITY":0.00020781,"INCLINATION":86.3959,"RA_OF_ASC_NODE":37.8195,"ARG_OF_PERICENTER":82.3073,"MEAN_ANOMALY":277.8359,"EPHEMERIS_TYPE":0,"CLASSIFICATION_TYPE":"U","NORAD_CAT_ID":42809,"ELEMENT_SET_NO":999,"REV_AT_EPOCH":45479,"BSTAR":-6.163514e-6,"MEAN_MOTION_DOT":3.0e-8,"MEAN_MOTION_DDOT":0}]
